start=new Date('2023-03-25T00:00:00.000Z').valueOf();
sats=[{"TIME_SYSTEM":"UTC","MEAN_ANOMALY":"284.1153","MEAN_MOTION_DOT":"0.00033503","PERIAPSIS":"546.071","TLE_LINE2":"2 48407  53.0527 153.3358 0001502  76.0003 284.1153 15.06433545104408","PERIOD":"95.590","DECAY_DATE":null,"ARG_OF_PERICENTER":"76.0003","LAUNCH_DATE":"2021-05-04","SITE":"AFETR","BSTAR":"0.00225540000000","GP_ID":"228822499","INCLINATION":"53.0527","OBJECT_NAME":"STARLINK-2595","MEAN_MOTION":"15.06433545","EPHEMERIS_TYPE":"0","TLE_LINE1":"1 48407U 21038BG  23083.93088410  .00033503  00000-0  22554-2 0  9990","MEAN_ELEMENT_THEORY":"SGP4","ELEMENT_SET_NO":"999","CENTER_NAME":"EARTH","CLASSIFICATION_TYPE":"U","MEAN_MOTION_DDOT":"0.0000000000000","REV_AT_EPOCH":"10440","REF_FRAME":"TEME","NORAD_CAT_ID":"48407","RA_OF_ASC_NODE":"153.3358","APOAPSIS":"548.151","FILE":"3870109","OBJECT_TYPE":"PAYLOAD","OBJECT_ID":"2021-038BG","EPOCH":"2023-03-24T22:20:28.386240","ECCENTRICITY":"0.00015020","COUNTRY_CODE":"US","RCS_SIZE":"LARGE","SEMIMAJOR_AXIS":"6925.246"},{"REF_FRAME":"TEME","NORAD_CAT_ID":"48408","REV_AT_EPOCH":"10440","MEAN_MOTION_DDOT":"0.0000000000000","FILE":"3870109","RA_OF_ASC_NODE":"153.3488","APOAPSIS":"547.754","EPOCH":"2023-03-24T22:15:09.025920","ECCENTRICITY":"0.00008790","OBJECT_TYPE":"PAYLOAD","OBJECT_ID":"2021-038BH","RCS_SIZE":"LARGE","SEMIMAJOR_AXIS":"6925.280","COUNTRY_CODE":"US","MEAN_MOTION":"15.06422292","EPHEMERIS_TYPE":"0","ELEMENT_SET_NO":"999","MEAN_ELEMENT_THEORY":"SGP4","TLE_LINE1":"1 48408U 21038BH  23083.92718780  .00034018  00000-0  22903-2 0  9990","CENTER_NAME":"EARTH","CLASSIFICATION_TYPE":"U","DECAY_DATE":null,"ARG_OF_PERICENTER":"99.4168","LAUNCH_DATE":"2021-05-04","SITE":"AFETR","GP_ID":"228822244","INCLINATION":"53.0519","OBJECT_NAME":"STARLINK-2592","BSTAR":"0.00229030000000","TIME_SYSTEM":"UTC","MEAN_MOTION_DOT":"0.00034018","PERIAPSIS":"546.537","TLE_LINE2":"2 48408  53.0519 153.3488 0000879  99.4168 260.6921 15.06422292104400","MEAN_ANOMALY":"260.6921","PERIOD":"95.591"},{"TLE_LINE1":"1 48409U 21038BJ  23083.68530446  .00061410  00000-0  41031-2 0  9994","MEAN_ELEMENT_THEORY":"SGP4","ELEMENT_SET_NO":"999","MEAN_MOTION":"15.06425282","EPHEMERIS_TYPE":"0","CLASSIFICATION_TYPE":"U","CENTER_NAME":"EARTH","APOAPSIS":"547.980","RA_OF_ASC_NODE":"159.4351","FILE":"3870109","MEAN_MOTION_DDOT":"0.0000000000000","REV_AT_EPOCH":"10431","REF_FRAME":"TEME","NORAD_CAT_ID":"48409","COUNTRY_CODE":"US","SEMIMAJOR_AXIS":"6925.271","RCS_SIZE":"LARGE","OBJECT_TYPE":"PAYLOAD","OBJECT_ID":"2021-038BJ","EPOCH":"2023-03-24T16:26:50.305344","ECCENTRICITY":"0.00012190","TIME_SYSTEM":"UTC","PERIOD":"95.591","MEAN_ANOMALY":"310.0359","PERIAPSIS":"546.292","MEAN_MOTION_DOT":"0.00061410","TLE_LINE2":"2 48409  53.0537 159.4351 0001219  50.0737 310.0359 15.06425282104318","DECAY_DATE":null,"ARG_OF_PERICENTER":"50.0737","BSTAR":"0.00410310000000","GP_ID":"228820998","OBJECT_NAME":"STARLINK-2596","INCLINATION":"53.0537","LAUNCH_DATE":"2021-05-04","SITE":"AFETR"},{"SEMIMAJOR_AXIS":"6925.266","RCS_SIZE":"LARGE","COUNTRY_CODE":"US","ECCENTRICITY":"0.00015500","EPOCH":"2023-03-24T18:08:59.871264","OBJECT_ID":"2021-038BK","OBJECT_TYPE":"PAYLOAD","FILE":"3870109","RA_OF_ASC_NODE":"109.1095","APOAPSIS":"548.204","NORAD_CAT_ID":"48410","REF_FRAME":"TEME","MEAN_MOTION_DDOT":"0.0000000000000","REV_AT_EPOCH":"10502","CLASSIFICATION_TYPE":"U","CENTER_NAME":"EARTH","ELEMENT_SET_NO":"999","MEAN_ELEMENT_THEORY":"SGP4","TLE_LINE1":"1 48410U 21038BK  23083.75624851  .00017303  00000-0  11768-2 0  9994","MEAN_MOTION":"15.06427073","EPHEMERIS_TYPE":"0","INCLINATION":"53.0530","GP_ID":"228821748","OBJECT_NAME":"STARLINK-2563","BSTAR":"0.00117680000000","SITE":"AFETR","LAUNCH_DATE":"2021-05-04","DECAY_DATE":null,"ARG_OF_PERICENTER":"116.2490","PERIOD":"95.590","TLE_LINE2":"2 48410  53.0530 109.1095 0001550 116.2490 243.8658 15.06427073105023","PERIAPSIS":"546.057","MEAN_MOTION_DOT":"0.00017303","MEAN_ANOMALY":"243.8658","TIME_SYSTEM":"UTC"},{"CENTER_NAME":"EARTH","CLASSIFICATION_TYPE":"U","EPHEMERIS_TYPE":"0","MEAN_MOTION":"15.06448571","TLE_LINE1":"1 48411U 21038BL  23083.77328455  .00023480  00000-0  15879-2 0  9998","MEAN_ELEMENT_THEORY":"SGP4","ELEMENT_SET_NO":"999","OBJECT_TYPE":"PAYLOAD","OBJECT_ID":"2021-038BL","EPOCH":"2023-03-24T18:33:31.785120","ECCENTRICITY":"0.00012870","COUNTRY_CODE":"US","RCS_SIZE":"LARGE","SEMIMAJOR_AXIS":"6925.200","MEAN_MOTION_DDOT":"0.0000000000000","REV_AT_EPOCH":"10509","REF_FRAME":"TEME","NORAD_CAT_ID":"48411","APOAPSIS":"547.956","RA_OF_ASC_NODE":"104.0388","FILE":"3870109","MEAN_ANOMALY":"258.9941","PERIAPSIS":"546.173","MEAN_MOTION_DOT":"0.00023480","TLE_LINE2":"2 48411  53.0511 104.0388 0001287 101.1193 258.9941 15.06448571105097","PERIOD":"95.589","TIME_SYSTEM":"UTC","LAUNCH_DATE":"2021-05-04","SITE":"AFETR","BSTAR":"0.00158790000000","OBJECT_NAME":"STARLINK-2505","GP_ID":"228822000","INCLINATION":"53.0511","ARG_OF_PERICENTER":"101.1193","DECAY_DATE":null},{"CLASSIFICATION_TYPE":"U","CENTER_NAME":"EARTH","ELEMENT_SET_NO":"999","MEAN_ELEMENT_THEORY":"SGP4","TLE_LINE1":"1 48412U 21038BM  23083.79178841  .00028592  00000-0  19285-2 0  9997","EPHEMERIS_TYPE":"0","MEAN_MOTION":"15.06441040","SEMIMAJOR_AXIS":"6925.223","RCS_SIZE":"LARGE","COUNTRY_CODE":"US","ECCENTRICITY":"0.00014660","EPOCH":"2023-03-24T19:00:10.518624","OBJECT_ID":"2021-038BM","OBJECT_TYPE":"PAYLOAD","FILE":"3870109","RA_OF_ASC_NODE":"104.3883","APOAPSIS":"548.103","NORAD_CAT_ID":"48412","REF_FRAME":"TEME","REV_AT_EPOCH":"10509","MEAN_MOTION_DDOT":"0.0000000000000","PERIOD":"95.590","TLE_LINE2":"2 48412  53.0513 104.3883 0001466  77.6862 282.4291 15.06441040105096","MEAN_MOTION_DOT":"0.00028592","PERIAPSIS":"546.073","MEAN_ANOMALY":"282.4291","TIME_SYSTEM":"UTC","GP_ID":"228822744","INCLINATION":"53.0513","OBJECT_NAME":"STARLINK-2581","BSTAR":"0.00192850000000","SITE":"AFETR","LAUNCH_DATE":"2021-05-04","DECAY_DATE":null,"ARG_OF_PERICENTER":"77.6862"},{"SEMIMAJOR_AXIS":"6925.055","RCS_SIZE":"LARGE","COUNTRY_CODE":"US","EPOCH":"2023-03-24T22:22:26.223744","ECCENTRICITY":"0.00008880","OBJECT_TYPE":"PAYLOAD","OBJECT_ID":"2021-040A","FILE":"3870109","RA_OF_ASC_NODE":"358.3269","APOAPSIS":"547.535","REF_FRAME":"TEME","NORAD_CAT_ID":"48428","REV_AT_EPOCH":"10366","MEAN_MOTION_DDOT":"0.0000000000000","CLASSIFICATION_TYPE":"U","CENTER_NAME":"EARTH","MEAN_ELEMENT_THEORY":"SGP4","ELEMENT_SET_NO":"999","TLE_LINE1":"1 48428U 21040A   23083.93224796  .00037641  00000-0  25259-2 0  9997","EPHEMERIS_TYPE":"0","MEAN_MOTION":"15.06495697","INCLINATION":"53.0546","GP_ID":"228822246","OBJECT_NAME":"STARLINK-2461","BSTAR":"0.00252590000000","LAUNCH_DATE":"2021-05-09","SITE":"AFETR","ARG_OF_PERICENTER":"98.3141","DECAY_DATE":null,"PERIOD":"95.586","MEAN_MOTION_DOT":"0.00037641","PERIAPSIS":"546.305","TLE_LINE2":"2 48428  53.0546 358.3269 0000888  98.3141 261.7948 15.06495697103662","MEAN_ANOMALY":"261.7948","TIME_SYSTEM":"UTC"},{"EPOCH":"2023-03-24T21:38:39.736320","ECCENTRICITY":"0.00013200","OBJECT_TYPE":"PAYLOAD","OBJECT_ID":"2021-040B","RCS_SIZE":"LARGE","SEMIMAJOR_AXIS":"6925.042","COUNTRY_CODE":"US","REF_FRAME":"TEME","NORAD_CAT_ID":"48429","REV_AT_EPOCH":"10407","MEAN_MOTION_DDOT":"0.0000000000000","FILE":"3870109","APOAPSIS":"547.821","RA_OF_ASC_NODE":"328.4733","CENTER_NAME":"EARTH","CLASSIFICATION_TYPE":"U","MEAN_MOTION":"15.06500093","EPHEMERIS_TYPE":"0","MEAN_ELEMENT_THEORY":"SGP4","ELEMENT_SET_NO":"999","TLE_LINE1":"1 48429U 21040B   23083.90184880  .00041293  00000-0  27674-2 0  9995","LAUNCH_DATE":"2021-05-09","SITE":"AFETR","INCLINATION":"53.0540","GP_ID":"228821000","OBJECT_NAME":"STARLINK-2749","BSTAR":"0.00276740000000","DECAY_DATE":null,"ARG_OF_PERICENTER":"64.2678","PERIAPSIS":"545.993","MEAN_MOTION_DOT":"0.00041293","TLE_LINE2":"2 48429  53.0540 328.4733 0001320  64.2678 295.8447 15.06500093104075","MEAN_ANOMALY":"295.8447","PERIOD":"95.586","TIME_SYSTEM":"UTC"},{"ARG_OF_PERICENTER":"83.3124","DECAY_DATE":null,"GP_ID":"228821750","OBJECT_NAME":"STARLINK-2729","INCLINATION":"53.0532","BSTAR":"0.00284380000000","LAUNCH_DATE":"2021-05-09","SITE":"AFETR","TIME_SYSTEM":"UTC","PERIOD":"95.585","MEAN_MOTION_DOT":"0.00042465","PERIAPSIS":"546.184","TLE_LINE2":"2 48430  53.0532 328.3166 0000979  83.3124 276.7977 15.06514843104089","MEAN_ANOMALY":"276.7977","FILE":"3870109","APOAPSIS":"547.540","RA_OF_ASC_NODE":"328.3166","REF_FRAME":"TEME","NORAD_CAT_ID":"48430","REV_AT_EPOCH":"10408","MEAN_MOTION_DDOT":"0.0000000000000","RCS_SIZE":"LARGE","SEMIMAJOR_AXIS":"6924.997","COUNTRY_CODE":"US","EPOCH":"2023-03-24T22:25:02.085024","ECCENTRICITY":"0.00009790","OBJECT_TYPE":"PAYLOAD","OBJECT_ID":"2021-040C","MEAN_ELEMENT_THEORY":"SGP4","ELEMENT_SET_NO":"999","TLE_LINE1":"1 48430U 21040C   23083.93405191  .00042465  00000-0  28438-2 0  9992","MEAN_MOTION":"15.06514843","EPHEMERIS_TYPE":"0","CLASSIFICATION_TYPE":"U","CENTER_NAME":"EARTH"},{"MEAN_MOTION":"15.06530646","EPHEMERIS_TYPE":"0","TLE_LINE1":"1 48431U 21040D   23083.94739390  .00036835  00000-0  24702-2 0  9999","ELEMENT_SET_NO":"999","MEAN_ELEMENT_THEORY":"SGP4","CENTER_NAME":"EARTH","CLASSIFICATION_TYPE":"U","MEAN_MOTION_DDOT":"0.0000000000000","REV_AT_EPOCH":"10415","REF_FRAME":"TEME","NORAD_CAT_ID":"48431","APOAPSIS":"547.471","RA_OF_ASC_NODE":"323.2601","FILE":"3870109","OBJECT_TYPE":"PAYLOAD","OBJECT_ID":"2021-040D","EPOCH":"2023-03-24T22:44:14.832960","ECCENTRICITY":"0.00009500","COUNTRY_CODE":"US","RCS_SIZE":"LARGE","SEMIMAJOR_AXIS":"6924.948","TIME_SYSTEM":"UTC","MEAN_ANOMALY":"283.6885","MEAN_MOTION_DOT":"0.00036835","PERIAPSIS":"546.155","TLE_LINE2":"2 48431  53.0534 323.2601 0000950  76.4210 283.6885 15.06530646104150","PERIOD":"95.584","DECAY_DATE":null,"ARG_OF_PERICENTER":"76.4210","LAUNCH_DATE":"2021-05-09","SITE":"AFETR","BSTAR":"0.00247020000000","GP_ID":"228822002","INCLINATION":"53.0534","OBJECT_NAME":"STARLINK-2700"}];
